[ {"name": "SWARM A", "line1": "1 39452U 13067B   26156.15310506  .00010311  00000+0  17886-3 0  9999", "line2": "2 39452  87.3330  60.7108 0003028  91.1732 268.9875 15.50702228704386"}, {"name": "SWARM C", "line1": "1 39453U 13067C   26156.15299647  .00010227  00000+0  17738-3 0  9994", "line2": "2 39453  87.3329  59.2921 0003006  91.2268 268.9337 15.50704390704343"}, {"name": "BRITE-CA1 (TORONTO)", "line1": "1 40020U 14033L   26155.94362867  .00000836  00000+0  13337-3 0  9997", "line2": "2 40020  97.9725 285.0983 0077622 316.8495  42.6646 14.72659852640414"}, {"name": "OCO 2", "line1": "1 40059U 14035A   26156.13826801  .00000513  00000+0  12393-3 0  9999", "line2": "2 40059  98.2015  97.6152 0001470  87.4473 272.6894 14.57101188634298"}, {"name": "BRITE-PL2 (HEWELIUSZ)", "line1": "1 40119U 14049B   26155.25097445  .00002888  00000+0  27217-3 0  9995", "line2": "2 40119  97.9085 267.1526 0014906 148.0147 212.1981 14.94543231639513"}, {"name": "MMS 1", "line1": "1 40482U 15011A   26156.25005786 -.00000343  00000+0  00000+0 0  9998", "line2": "2 40482  72.0500 348.9199 8338583 167.0625 161.1521  0.28352782  1377"}, {"name": "MMS 2", "line1": "1 40483U 15011B   26156.25005786 -.00000343  00000+0  00000+0 0  9999", "line2": "2 40483  72.0501 348.9221 8339360 167.0681 161.1403  0.28352806  1377"}, {"name": "MMS 3", "line1": "1 40484U 15011C   26156.25005786 -.00000343  00000+0  00000+0 0  9990", "line2": "2 40484  72.0531 348.9266 8338555 167.0626 161.1371  0.28352766  1373"}, {"name": "MMS 4", "line1": "1 40485U 15011D   26156.25005786 -.00000343  00000+0  00000+0 0  9991", "line2": "2 40485  72.0566 348.9209 8338509 167.0710 161.1253  0.28353605  1374"}, {"name": "ASTROSAT", "line1": "1 40930U 15052A   26156.11670950  .00001856  00000+0  14413-3 0  9993", "line2": "2 40930   5.9960 242.2474 0008368 226.2463 133.6972 14.82487176578034"}, {"name": "DAMPE", "line1": "1 41173U 15078A   26156.20593630  .00001555  00000+0  54815-4 0  9997", "line2": "2 41173  97.4557 161.6146 0013529 114.1445 246.1212 15.30753695582715"}, {"name": "PISAT", "line1": "1 41784U 16059B   26156.08746740  .00001084  00000+0  19209-3 0  9997", "line2": "2 41784  97.8177 157.0604 0027619 242.8973 116.9415 14.68962156517961"}, {"name": "HXMT (HUIYAN)", "line1": "1 42758U 17034A   26156.16229957  .00005720  00000+0  28147-3 0  9990", "line2": "2 42758  43.0138 249.9961 0030232  67.6505 292.7543 15.18383642495838"}, {"name": "FLYING LAPTOP", "line1": "1 42831U 17042G   26156.18682399  .00003742  00000+0  29606-3 0  9999", "line2": "2 42831  97.4643 312.1861 0018878 161.0256 199.1676 15.01063045484659"}, {"name": "ZHANGHENG 1-01 (CSES-1)", "line1": "1 43194U 18015C   26156.22930131  .00007933  00000+0  36323-3 0  9998", "line2": "2 43194  97.6867 321.6514 0017307 311.2648  48.7095 15.20653320462823"}, {"name": "SALSAT", "line1": "1 46495U 20068K   26155.97862976  .00008911  00000+0  31300-3 0  9995", "line2": "2 46495  97.8851 158.3021 0009245 356.4519   3.6652 15.29615280313492"}, {"name": "IXPE", "line1": "1 49954U 21121A   26156.16670139  .00021797  00000+0  12375-2 0  9996", "line2": "2 49954   0.2314  47.8334 0007397 255.5464  46.1144 15.10141699  5719"}, {"name": "SMILE", "line1": "1 69123U 26109A   26144.65318427 -.00001976  00000+0 -42379-3 0  9994", "line2": "2 69123  70.0007 229.2745 0009123 259.5159 100.4951 14.57062785   802"}]